{
  "norad_id": 39444,
  "name": "FUNCUBE-1 (AO-73)",
  "history": [
    {
      "epoch": "2026-04-14T20:45:11.133216Z",
      "apogee_km": 567.1850080610357,
      "perigee_km": 513.8615097137381,
      "latitude_deg": 3.5704437326455007e-05,
      "longitude_deg": -79.28260485880837,
      "height_km": 530.4261523830554,
      "semi_major_axis_km": 6918.660258887387,
      "eccentricity": 0.0038536,
      "inclination_deg": 97.8231,
      "raan_deg": 75.0488,
      "arg_perigee_deg": 60.7459,
      "mean_anomaly_deg": 299.7613,
      "mean_motion_rev_day": 15.08584893
    },
    {
      "epoch": "2026-04-15T20:37:52.813056Z",
      "apogee_km": 567.1632731816471,
      "perigee_km": 513.8220223234039,
      "latitude_deg": 2.7900588998247714e-05,
      "longitude_deg": -77.42321251919303,
      "height_km": 529.1278845892032,
      "semi_major_axis_km": 6918.629647752525,
      "eccentricity": 0.0038549,
      "inclination_deg": 97.8233,
      "raan_deg": 76.0625,
      "arg_perigee_deg": 57.5687,
      "mean_anomaly_deg": 302.926,
      "mean_motion_rev_day": 15.08594905
    },
    {
      "epoch": "2026-04-16T15:44:01.749984Z",
      "apogee_km": 567.1319245561226,
      "perigee_km": 513.8005633105868,
      "latitude_deg": -1.9585510827067186e-05,
      "longitude_deg": -3.933852789000301,
      "height_km": 528.1111619059972,
      "semi_major_axis_km": 6918.603243933355,
      "eccentricity": 0.0038542,
      "inclination_deg": 97.8238,
      "raan_deg": 76.8736,
      "arg_perigee_deg": 54.989,
      "mean_anomaly_deg": 305.4945,
      "mean_motion_rev_day": 15.08603541
    },
    {
      "epoch": "2026-04-17T21:58:45.108768Z",
      "apogee_km": 567.061669905891,
      "perigee_km": 513.7815732188938,
      "latitude_deg": -5.536635016777057e-05,
      "longitude_deg": -97.57244130191113,
      "height_km": 526.5819808836684,
      "semi_major_axis_km": 6918.558621562392,
      "eccentricity": 0.00385052,
      "inclination_deg": 97.8245,
      "raan_deg": 78.1578,
      "arg_perigee_deg": 50.9232,
      "mean_anomaly_deg": 309.541,
      "mean_motion_rev_day": 15.08618136
    },
    {
      "epoch": "2026-04-18T20:15:54.185760Z",
      "apogee_km": 567.0053041487536,
      "perigee_km": 513.7631322619327,
      "latitude_deg": -4.306216426548153e-05,
      "longitude_deg": -71.82921122422567,
      "height_km": 525.5103918603288,
      "semi_major_axis_km": 6918.521218205343,
      "eccentricity": 0.0038478,
      "inclination_deg": 97.8248,
      "raan_deg": 79.1041,
      "arg_perigee_deg": 47.9387,
      "mean_anomaly_deg": 312.5103,
      "mean_motion_rev_day": 15.0863037
    },
    {
      "epoch": "2026-04-19T15:22:01.437024Z",
      "apogee_km": 566.9495220271474,
      "perigee_km": 513.7518863720152,
      "latitude_deg": -6.48229548501801e-05,
      "longitude_deg": 1.6671854944929598,
      "height_km": 524.6596638843814,
      "semi_major_axis_km": 6918.487704199581,
      "eccentricity": 0.0038446,
      "inclination_deg": 97.8251,
      "raan_deg": 79.9152,
      "arg_perigee_deg": 45.4575,
      "mean_anomaly_deg": 314.9781,
      "mean_motion_rev_day": 15.08641332
    },
    {
      "epoch": "2026-04-20T12:03:38.688768Z",
      "apogee_km": 566.8591143777439,
      "perigee_km": 513.7785074903977,
      "latitude_deg": 7.71840723997552e-05,
      "longitude_deg": 51.29068964010308,
      "height_km": 523.768545968496,
      "semi_major_axis_km": 6918.4558109340705,
      "eccentricity": 0.00383616,
      "inclination_deg": 97.8253,
      "raan_deg": 80.7938,
      "arg_perigee_deg": 42.6399,
      "mean_anomaly_deg": 317.7796,
      "mean_motion_rev_day": 15.08651764
    },
    {
      "epoch": "2026-04-21T21:29:19.034880Z",
      "apogee_km": 566.6677113823534,
      "perigee_km": 513.8430183197697,
      "latitude_deg": -3.479051713876676e-05,
      "longitude_deg": -90.08074130051814,
      "height_km": 522.4489716458324,
      "semi_major_axis_km": 6918.392364851062,
      "eccentricity": 0.0038177,
      "inclination_deg": 97.8251,
      "raan_deg": 82.2133,
      "arg_perigee_deg": 38.076,
      "mean_anomaly_deg": 322.3154,
      "mean_motion_rev_day": 15.08672517
    },
    {
      "epoch": "2026-04-22T19:46:25.092192Z",
      "apogee_km": 566.5269100843925,
      "perigee_km": 513.9169414692151,
      "latitude_deg": -1.3099736678597369e-05,
      "longitude_deg": -64.32499842428903,
      "height_km": 521.6404352037835,
      "semi_major_axis_km": 6918.3589257768035,
      "eccentricity": 0.0038022,
      "inclination_deg": 97.8248,
      "raan_deg": 83.1595,
      "arg_perigee_deg": 34.8972,
      "mean_anomaly_deg": 325.4737,
      "mean_motion_rev_day": 15.08683455
    },
    {
      "epoch": "2026-04-23T11:41:29.034240Z",
      "apogee_km": 566.428096290244,
      "perigee_km": 513.9647136802232,
      "latitude_deg": 3.403919597435487e-05,
      "longitude_deg": 56.93064939698403,
      "height_km": 521.1126015803661,
      "semi_major_axis_km": 6918.333404985233,
      "eccentricity": 0.00379162,
      "inclination_deg": 97.8244,
      "raan_deg": 83.8353,
      "arg_perigee_deg": 32.6659,
      "mean_anomaly_deg": 327.6903,
      "mean_motion_rev_day": 15.08691803
    }
  ]
}